OBJECT_NAME,OBJECT_ID,EPOCH,MEAN_MOTION,ECCENTRICITY,INCLINATION,RA_OF_ASC_NODE,ARG_OF_PERICENTER,MEAN_ANOMALY,EPHEMERIS_TYPE,CLASSIFICATION_TYPE,NORAD_CAT_ID,ELEMENT_SET_NO,REV_AT_EPOCH,BSTAR,MEAN_MOTION_DOT,MEAN_MOTION_DDOT
BEIDOU-3 M2 (C20),2017-069B,2026-02-28T14:33:26.953344,1.86230525,.00096147,56.5962,66.6958,328.4863,31.4966,0,U,43002,999,5657,0,.2E-7,0
GSAT0215 (GALILEO 19),2017-079A,2026-02-27T21:52:25.630464,1.70474334,.0000662,55.1102,224.5103,18.6698,341.2932,0,U,43055,999,5112,0,.32E-6,0
GSAT0216 (GALILEO 20),2017-079B,2026-02-28T04:51:47.131776,1.70474475,.0001682,55.1093,224.5024,323.3760,36.5709,0,U,43056,999,5114,0,.28E-6,0
GSAT0217 (GALILEO 21),2017-079C,2026-02-27T20:04:59.800800,1.70474377,.00020789,55.1101,224.5102,358.4163,1.5441,0,U,43057,999,5112,0,.33E-6,0
GSAT0218 (GALILEO 22),2017-079D,2026-03-01T05:31:11.512704,1.70474409,.0001889,55.1053,224.4697,305.5636,54.3694,0,U,43058,999,5117,0,.18E-6,0
BEIDOU-3 M7 (C27),2018-003A,2026-02-28T21:15:12.343392,1.86232253,.00045901,54.4241,306.0930,70.5904,289.5176,0,U,43107,999,5533,0,-.46E-6,0
BEIDOU-3 M8 (C28),2018-003B,2026-02-28T19:56:45.737952,1.86230786,.00033152,54.4168,306.0781,291.7790,68.2441,0,U,43108,999,5534,0,-.46E-6,0
BEIDOU-3 M4 (C22),2018-018A,2026-03-01T06:33:32.217984,1.86230768,.0006849,56.5572,66.7052,350.3261,9.6997,0,U,43207,999,5473,0,-.1E-7,0
BEIDOU-3 M3 (C21),2018-018B,2026-03-01T08:09:13.396032,1.86230859,.0009892,56.5566,66.7071,319.3285,40.6363,0,U,43208,999,5473,0,-.1E-7,0
BEIDOU-3 M9 (C29),2018-029A,2026-03-01T00:28:38.716320,1.86227979,.00009218,54.2912,303.7325,20.5005,339.5630,0,U,43245,999,5388,0,-.42E-6,0
BEIDOU-3 M10 (C30),2018-029B,2026-02-28T22:54:53.087904,1.86228901,.00050489,54.2888,303.7627,21.6630,338.4180,0,U,43246,999,5386,0,-.42E-6,0
IRNSS-1I,2018-035A,2026-03-01T02:57:38.611584,1.00276166,.0019256,28.9216,75.8655,189.8352,352.6928,0,U,43286,999,2899,0,.76E-6,0
COSMOS 2527 (756),2018-053A,2026-03-01T03:42:35.614368,2.13102047,.00096301,65.5160,77.5103,244.8081,115.1487,0,U,43508,999,5997,0,.41E-6,0
BEIDOU-2 IGSO-7 (C16),2018-057A,2026-02-25T17:45:22.620960,1.00284731,.00999628,55.1859,164.0342,236.5988,133.5173,0,U,43539,999,2801,0,-.161E-5,0
GSAT0221 (GALILEO 25),2018-060A,2026-02-28T13:07:14.911104,1.70475369,.00058048,57.2051,344.7173,306.7848,53.1689,0,U,43564,999,4731,0,-.105E-5,0
GSAT0222 (GALILEO 26),2018-060B,2026-02-24T15:50:30.088608,1.70474973,.0004435,57.2093,344.8256,285.4820,74.4799,0,U,43565,999,4729,0,-.92E-6,0
GSAT0219 (GALILEO 23),2018-060C,2026-02-22T12:50:02.521824,1.70475208,.0005774,57.2094,344.8846,308.6957,51.2673,0,U,43566,999,4723,0,-.82E-6,0
GSAT0220 (GALILEO 24),2018-060D,2026-02-27T10:45:41.962176,1.70475159,.0005301,57.2075,344.7516,308.5821,51.3768,0,U,43567,999,4730,0,-.102E-5,0
BEIDOU-3 M5 (C23),2018-062A,2026-02-28T15:24:24.098976,1.86228457,.00021425,54.0883,185.9939,311.6058,48.3275,0,U,43581,999,5161,0,-.3E-6,0
BEIDOU-3 M6 (C24),2018-062B,2026-02-28T12:06:58.059360,1.86227508,.00062952,54.0879,185.9878,43.8159,316.1858,0,U,43582,999,5161,0,-.29E-6,0
BEIDOU-3 M12 (C26),2018-067A,2026-03-01T12:24:44.254368,1.86227647,.0008635,54.1831,184.6910,40.1631,319.8532,0,U,43602,999,5111,0,-.32E-6,0
BEIDOU-3 M11 (C25),2018-067B,2026-02-28T13:52:19.013376,1.86227045,.00050194,54.1806,184.6868,34.9301,325.0559,0,U,43603,999,5112,0,-.3E-6,0
BEIDOU-3 M13 (C32),2018-072A,2026-03-01T01:42:05.899104,1.86230830,.00088377,56.5296,66.2261,307.1015,52.8563,0,U,43622,999,5064,0,-.1E-7,0
BEIDOU-3 M14 (C33),2018-072B,2026-02-28T09:35:08.736288,1.86230836,.0006323,56.5307,66.2423,328.2609,31.7411,0,U,43623,999,5062,0,.2E-7,0
BEIDOU-3 M16 (C35),2018-078A,2026-03-01T02:14:17.379744,1.86232242,.0008416,54.1872,303.7769,30.5698,329.5390,0,U,43647,999,5014,0,-.42E-6,0
BEIDOU-3 M15 (C34),2018-078B,2026-03-01T05:20:28.032288,1.86232035,.0005146,54.1835,303.7733,35.7790,324.3153,0,U,43648,999,5016,0,-.43E-6,0
BEIDOU-3 G1 (C59),2018-085A,2026-03-01T13:17:17.641824,1.00269352,.0001254,2.8027,100.4722,33.4453,4.8085,0,U,43683,999,2698,0,-.296E-5,0
COSMOS 2529 (757),2018-086A,2026-02-27T08:59:15.336384,2.13101880,.00079597,64.2955,196.2992,253.0448,106.8346,0,U,43687,999,5694,0,.8E-7,0
BEIDOU-3 M17 (C36),2018-093A,2026-03-01T10:36:11.488032,1.86228310,.0006947,54.1716,185.9513,297.5558,102.4053,0,U,43706,999,4953,0,-.31E-6,0
BEIDOU-3 M18 (C37),2018-093B,2026-03-01T05:51:49.978080,1.86226359,.0006014,54.1727,185.9497,341.9968,17.9329,0,U,43707,999,4952,0,-.31E-6,0
GPS BIII-1  (PRN 04),2018-109A,2026-03-01T06:02:06.000576,2.00556460,.0037866,55.6128,96.4437,198.2214,112.1971,0,U,43873,999,5290,0,.21E-6,0
